{"type": "FeatureCollection", "features": [ {"type": "Feature", "properties": {"norad_id": 30241, "name": "FENGYUN 1C DEB", "group": "fengyun-1c-debris", "lat": -74.6937719843025, "lon": 145.07939801890876, "alt_km": 973.5743614691837, "timestamp": "2025-12-02T07:10:09.390257+00:00", "meta": {"OBJECT_NAME": "FENGYUN 1C DEB", "OBJECT_ID": "1999-025XA", "EPOCH": "2025-12-01T14:48:38.172672", "MEAN_MOTION": 14.09526594, "ECCENTRICITY": 0.01468233, "INCLINATION": 99.1482, "RA_OF_ASC_NODE": 108.317, "ARG_OF_PERICENTER": 112.0155, "MEAN_ANOMALY": 313.3087, "EPHEMERIS_TYPE": 0, "CLASSIFICATION_TYPE": "U", "NORAD_CAT_ID": 30241, "ELEMENT_SET_NO": 999, "REV_AT_EPOCH": 96755, "BSTAR": 0.00029163726, "MEAN_MOTION_DOT": 5.19e-06, "MEAN_MOTION_DDOT": 0}, "tle": {"line1": "1 30241U 99025XA  25335.61710848  .00000519  00000+0  29164-3 0  9997", "line2": "2 30241  99.1482 108.3170 0146823 112.0155 313.3087 14.09526594967556"}}, "geometry": {"type": "Point", "coordinates": [145.07939801890876, -74.6937719843025]}}, {"type": "Feature", "properties": {"norad_id": 30242, "name": "FENGYUN 1C DEB", "group": "fengyun-1c-debris", "lat": -80.3986358895973, "lon": 75.33646277781129, "alt_km": 848.9396085658718, "timestamp": "2025-12-02T07:10:09.390267+00:00", "meta": {"OBJECT_NAME": "FENGYUN 1C DEB", "OBJECT_ID": "1999-025XB", "EPOCH": "2025-12-01T13:42:27.492192", "MEAN_MOTION": 14.17595979, "ECCENTRICITY": 0.00114752, "INCLINATION": 98.6849, "RA_OF_ASC_NODE": 9.9945, "ARG_OF_PERICENTER": 85.1517, "MEAN_ANOMALY": 78.035, "EPHEMERIS_TYPE": 0, "CLASSIFICATION_TYPE": "U", "NORAD_CAT_ID": 30242, "ELEMENT_SET_NO": 999, "REV_AT_EPOCH": 97268, "BSTAR": 0.00063243214, "MEAN_MOTION_DOT": 1.243e-05, "MEAN_MOTION_DDOT": 0}, "tle": {"line1": "1 30242U 99025XB  25335.57115153  .00001243  00000+0  63243-3 0  9992", "line2": "2 30242  98.6849   9.9945 0011475  85.1517  78.0350 14.17595979972680"}}, "geometry": {"type": "Point", "coordinates": [75.33646277781129, -80.3986358895973]}}, {"type": "Feature", "properties": {"norad_id": 30243, "name": "FENGYUN 1C DEB", "group": "fengyun-1c-debris", "lat": 8.836913698280705, "lon": 169.38312374293685, "alt_km": 842.3877500855979, "timestamp": "2025-12-02T07:10:09.390277+00:00", "meta": {"OBJECT_NAME": "FENGYUN 1C DEB", "OBJECT_ID": "1999-025XC", "EPOCH": "2025-12-01T19:16:53.517216", "MEAN_MOTION": 14.12996756, "ECCENTRICITY": 0.0012762, "INCLINATION": 98.6938, "RA_OF_ASC_NODE": 347.5391, "ARG_OF_PERICENTER": 148.345, "MEAN_ANOMALY": 24.35, "EPHEMERIS_TYPE": 0, "CLASSIFICATION_TYPE": "U", "NORAD_CAT_ID": 30243, "ELEMENT_SET_NO": 999, "REV_AT_EPOCH": 97124, "BSTAR": 0.00040758, "MEAN_MOTION_DOT": 7.18e-06, "MEAN_MOTION_DDOT": 0}, "tle": {"line1": "1 30243U 99025XC  25335.80339719  .00000718  00000+0  40758-3 0  9997", "line2": "2 30243  98.6938 347.5391 0012762 148.3450  24.3500 14.12996756971249"}}, "geometry": {"type": "Point", "coordinates": [169.38312374293685, 8.836913698280705]}}, {"type": "Feature", "properties": {"norad_id": 30244, "name": "FENGYUN 1C DEB", "group": "fengyun-1c-debris", "lat": -67.62884466761952, "lon": -111.27112327081794, "alt_km": 845.2705069507911, "timestamp": "2025-12-02T07:10:09.390287+00:00", "meta": {"OBJECT_NAME": "FENGYUN 1C DEB", "OBJECT_ID": "1999-025XD", "EPOCH": "2025-12-01T16:29:02.671008", "MEAN_MOTION": 14.14987683, "ECCENTRICITY": 0.0010059, "INCLINATION": 99.1434, "RA_OF_ASC_NODE": 225.0666, "ARG_OF_PERICENTER": 346.1165, "MEAN_ANOMALY": 69.342, "EPHEMERIS_TYPE": 0, "CLASSIFICATION_TYPE": "U", "NORAD_CAT_ID": 30244, "ELEMENT_SET_NO": 999, "REV_AT_EPOCH": 97190, "BSTAR": 0.000444, "MEAN_MOTION_DOT": 8.13e-06, "MEAN_MOTION_DDOT": 0}, "tle": {"line1": "1 30244U 99025XD  25335.68683647  .00000813  00000+0  44400-3 0  9990", "line2": "2 30244  99.1434 225.0666 0010059 346.1165  69.3420 14.14987683971904"}}, "geometry": {"type": "Point", "coordinates": [-111.27112327081794, -67.62884466761952]}}, {"type": "Feature", "properties": {"norad_id": 30245, "name": "FENGYUN 1C DEB", "group": "fengyun-1c-debris", "lat": -16.8684037248595, "lon": -32.74189449518068, "alt_km": 907.4888312633175, "timestamp": "2025-12-02T07:10:09.390297+00:00", "meta": {"OBJECT_NAME": "FENGYUN 1C DEB", "OBJECT_ID": "1999-025XE", "EPOCH": "2025-12-01T10:21:19.207584", "MEAN_MOTION": 13.79019806, "ECCENTRICITY": 0.01935367, "INCLINATION": 98.8882, "RA_OF_ASC_NODE": 323.7246, "ARG_OF_PERICENTER": 281.4035, "MEAN_ANOMALY": 76.5436, "EPHEMERIS_TYPE": 0, "CLASSIFICATION_TYPE": "U", "NORAD_CAT_ID": 30245, "ELEMENT_SET_NO": 999, "REV_AT_EPOCH": 94538, "BSTAR": 0.0014096315, "MEAN_MOTION_DOT": 1.614e-05, "MEAN_MOTION_DDOT": 0}, "tle": {"line1": "1 30245U 99025XE  25335.43147231  .00001614  00000+0  14096-2 0  9995", "line2": "2 30245  98.8882 323.7246 0193536 281.4035  76.5436 13.79019806945380"}}, "geometry": {"type": "Point", "coordinates": [-32.74189449518068, -16.8684037248595]}}, {"type": "Feature", "properties": {"norad_id": 30246, "name": "FENGYUN 1C DEB", "group": "fengyun-1c-debris", "lat": -40.8287588976955, "lon": -66.0824927040796, "alt_km": 1142.881094772958, "timestamp": "2025-12-02T07:10:09.390307+00:00", "meta": {"OBJECT_NAME": "FENGYUN 1C DEB", "OBJECT_ID": "1999-025XF", "EPOCH": "2025-12-01T15:50:07.380096", "MEAN_MOTION": 13.37010769, "ECCENTRICITY": 0.03707897, "INCLINATION": 98.6728, "RA_OF_ASC_NODE": 120.95, "ARG_OF_PERICENTER": 127.5005, "MEAN_ANOMALY": 255.9415, "EPHEMERIS_TYPE": 0, "CLASSIFICATION_TYPE": "U", "NORAD_CAT_ID": 30246, "ELEMENT_SET_NO": 999, "REV_AT_EPOCH": 91992, "BSTAR": 0.00033492249, "MEAN_MOTION_DOT": 2.26e-06, "MEAN_MOTION_DDOT": 0}, "tle": {"line1": "1 30246U 99025XF  25335.65980764  .00000226  00000+0  33492-3 0  9996", "line2": "2 30246  98.6728 120.9500 0370789 127.5005 255.9415 13.37010769919926"}}, "geometry": {"type": "Point", "coordinates": [-66.0824927040796, -40.8287588976955]}}, {"type": "Feature", "properties": {"norad_id": 30247, "name": "FENGYUN 1C DEB", "group": "fengyun-1c-debris", "lat": 29.47557150008197, "lon": -121.23800419194929, "alt_km": 558.0622130418142, "timestamp": "2025-12-02T07:10:09.390317+00:00", "meta": {"OBJECT_NAME": "FENGYUN 1C DEB", "OBJECT_ID": "1999-025XG", "EPOCH": "2025-12-01T16:28:48.408960", "MEAN_MOTION": 14.58459446, "ECCENTRICITY": 0.0196756, "INCLINATION": 98.2765, "RA_OF_ASC_NODE": 242.8714, "ARG_OF_PERICENTER": 26.0969, "MEAN_ANOMALY": 31.9413, "EPHEMERIS_TYPE": 0, "CLASSIFICATION_TYPE": "U", "NORAD_CAT_ID": 30247, "ELEMENT_SET_NO": 999, "REV_AT_EPOCH": 97121, "BSTAR": 0.0032892, "MEAN_MOTION_DOT": 0.00019964, "MEAN_MOTION_DDOT": 0}, "tle": {"line1": "1 30247U 99025XG  25335.68667140  .00019964  00000+0  32892-2 0  9991", "line2": "2 30247  98.2765 242.8714 0196756  26.0969  31.9413 14.58459446971210"}}, "geometry": {"type": "Point", "coordinates": [-121.23800419194929, 29.47557150008197]}}, {"type": "Feature", "properties": {"norad_id": 30248, "name": "FENGYUN 1C DEB", "group": "fengyun-1c-debris", "lat": 60.69213291648433, "lon": 142.83916928916966, "alt_km": 703.1017136528262, "timestamp": "2025-12-02T07:10:09.390327+00:00", "meta": {"OBJECT_NAME": "FENGYUN 1C DEB", "OBJECT_ID": "1999-025XH", "EPOCH": "2025-12-01T11:07:37.449696", "MEAN_MOTION": 14.58506148, "ECCENTRICITY": 0.00296519, "INCLINATION": 99.1012, "RA_OF_ASC_NODE": 158.5179, "ARG_OF_PERICENTER": 186.8758, "MEAN_ANOMALY": 173.2036, "EPHEMERIS_TYPE": 0, "CLASSIFICATION_TYPE": "U", "NORAD_CAT_ID": 30248, "ELEMENT_SET_NO": 999, "REV_AT_EPOCH": 97264, "BSTAR": 0.0051294796, "MEAN_MOTION_DOT": 0.00023998, "MEAN_MOTION_DDOT": 0}, "tle": {"line1": "1 30248U 99025XH  25335.46362789  .00023998  00000+0  51295-2 0  9999", "line2": "2 30248  99.1012 158.5179 0029651 186.8758 173.2036 14.58506148972645"}}, "geometry": {"type": "Point", "coordinates": [142.83916928916966, 60.69213291648433]}}, {"type": "Feature", "properties": {"norad_id": 30249, "name": "FENGYUN 1C DEB", "group": "fengyun-1c-debris", "lat": -5.315541503627622, "lon": -40.9147343409632, "alt_km": 712.3512646954914, "timestamp": "2025-12-02T07:10:09.390337+00:00", "meta": {"OBJECT_NAME": "FENGYUN 1C DEB", "OBJECT_ID": "1999-025XJ", "EPOCH": "2025-12-01T10:49:03.032256", "MEAN_MOTION": 14.57096809, "ECCENTRICITY": 0.00263426, "INCLINATION": 98.9594, "RA_OF_ASC_NODE": 139.0149, "ARG_OF_PERICENTER": 78.0569, "MEAN_ANOMALY": 341.2715, "EPHEMERIS_TYPE": 0, "CLASSIFICATION_TYPE": "U", "NORAD_CAT_ID": 30249, "ELEMENT_SET_NO": 999, "REV_AT_EPOCH": 97399, "BSTAR": 0.0042271066, "MEAN_MOTION_DOT": 0.00019133, "MEAN_MOTION_DDOT": 0}, "tle": {"line1": "1 30249U 99025XJ  25335.45072954  .00019133  00000+0  42271-2 0  9991", "line2": "2 30249  98.9594 139.0149 0026342  78.0569 341.2715 14.57096809973992"}}, "geometry": {"type": "Point", "coordinates": [-40.9147343409632, -5.315541503627622]}}, {"type": "Feature", "properties": {"norad_id": 30250, "name": "FENGYUN 1C DEB", "group": "fengyun-1c-debris", "lat": -17.502690464956896, "lon": 145.88229009033398, "alt_km": 864.4117414778375, "timestamp": "2025-12-02T07:10:09.390347+00:00", "meta": {"OBJECT_NAME": "FENGYUN 1C DEB", "OBJECT_ID": "1999-025XK", "EPOCH": "2025-12-01T12:08:35.547936", "MEAN_MOTION": 14.01602616, "ECCENTRICITY": 0.00687498, "INCLINATION": 98.7529, "RA_OF_ASC_NODE": 327.9065, "ARG_OF_PERICENTER": 255.0791, "MEAN_ANOMALY": 265.3302, "EPHEMERIS_TYPE": 0, "CLASSIFICATION_TYPE": "U", "NORAD_CAT_ID": 30250, "ELEMENT_SET_NO": 999, "REV_AT_EPOCH": 96334, "BSTAR": 0.00058501945, "MEAN_MOTION_DOT": 8.62e-06, "MEAN_MOTION_DDOT": 0}, "tle": {"line1": "1 30250U 99025XK  25335.50596699  .00000862  00000+0  58502-3 0  9990", "line2": "2 30250  98.7529 327.9065 0068749 255.0791 265.3302 14.01602616963340"}}, "geometry": {"type": "Point", "coordinates": [145.88229009033398, -17.502690464956896]}}]}